IRIDIUM 39              
1 25042U 97069D   25052.81129185  .00001165  00000+0  30194-3 0  9995
2 25042  86.3861 260.5998 0017182 338.5899  21.4584 14.48920670432251
IRIDIUM 38              
1 25043U 97069E   25052.86947437  .00000787  00000+0  25423-3 0  9997
2 25043  86.3920 281.6991 0003813 101.1038 259.0589 14.37927639429384
IRIDIUM 42              
1 25077U 97077A   25052.94359217  .00000654  00000+0  21756-3 0  9993
2 25077  86.3934 287.7005 0002587  97.8758 262.2732 14.36178949424658
IRIDIUM 44              
1 25078U 97077B   25052.86135455  .00000803  00000+0  24848-3 0  9992
2 25078  86.3910 269.9467 0003686  68.6236 291.5356 14.40051209427109
IRIDIUM 45              
1 25104U 97082A   25052.89420036  .00018409  00000+0  75180-3 0  9999
2 25104  86.3578 103.6691 0130436  43.2990 317.8411 15.16683980434532
IRIDIUM 24              
1 25105U 97082B   25053.12101505  .00000891  00000+0  26606-3 0  9999
2 25105  86.3930 129.1156 0013602  98.1307 262.1437 14.41901125426880
IRIDIUM 51              
1 25262U 98018A   25053.10495520  .00035561  00000+0  10354-2 0  9998
2 25262  86.3862 112.4101 0102288 330.5746  28.9766 15.30102519429595
IRIDIUM 57              
1 25273U 98019B   25053.11395580  .00000849  00000+0  28729-3 0  9994
2 25273  86.4011 193.4207 0002128  94.4539 265.6901 14.35744157408488
